HIMAWARI-8              
1 40267U 14060A   24077.84660097 -.00000289  00000+0  00000+0 0  9998
2 40267   0.0240 163.2065 0001180 166.2305 291.8840  1.00271052 34628
